{"type": "FeatureCollection", "features": [ {"type": "Feature", "properties": {"norad_id": 66845, "name": "STARLINK-36068", "group": "last-30-days", "lat": -42.00953404016553, "lon": 173.36723120617577, "alt_km": 358.23336393584486, "timestamp": "2025-12-14T22:38:39.518723+00:00", "meta": {"OBJECT_NAME": "STARLINK-36068", "OBJECT_ID": "2025-280AA", "EPOCH": "2025-12-14T06:00:02.999808", "MEAN_MOTION": 15.74076367, "ECCENTRICITY": 0.00034335, "INCLINATION": 69.9933, "RA_OF_ASC_NODE": 194.484, "ARG_OF_PERICENTER": 269.4626, "MEAN_ANOMALY": 79.474, "EPHEMERIS_TYPE": 0, "CLASSIFICATION_TYPE": "U", "NORAD_CAT_ID": 66845, "ELEMENT_SET_NO": 999, "REV_AT_EPOCH": 314, "BSTAR": -0.011719207, "MEAN_MOTION_DOT": -0.01480465, "MEAN_MOTION_DDOT": 0}, "tle": {"line1": "1 66845U 25280AA  25348.25003472 -.01480465  00000+0 -11719-1 0  9990", "line2": "2 66845  69.9933 194.4840 0003433 269.4626  79.4740 15.74076367  3143"}}, "geometry": {"type": "Point", "coordinates": [173.36723120617577, -42.00953404016553]}}, {"type": "Feature", "properties": {"norad_id": 66846, "name": "STARLINK-36055", "group": "last-30-days", "lat": -45.37007967664413, "lon": 170.87036161355556, "alt_km": 358.2552510154401, "timestamp": "2025-12-14T22:38:39.518737+00:00", "meta": {"OBJECT_NAME": "STARLINK-36055", "OBJECT_ID": "2025-280AB", "EPOCH": "2025-12-14T06:00:02.999808", "MEAN_MOTION": 15.74057581, "ECCENTRICITY": 0.00033368, "INCLINATION": 69.9935, "RA_OF_ASC_NODE": 194.4885, "ARG_OF_PERICENTER": 269.3661, "MEAN_ANOMALY": 75.7485, "EPHEMERIS_TYPE": 0, "CLASSIFICATION_TYPE": "U", "NORAD_CAT_ID": 66846, "ELEMENT_SET_NO": 999, "REV_AT_EPOCH": 314, "BSTAR": -0.011516215, "MEAN_MOTION_DOT": -0.01456698, "MEAN_MOTION_DDOT": 0}, "tle": {"line1": "1 66846U 25280AB  25348.25003472 -.01456698  00000+0 -11516-1 0  9997", "line2": "2 66846  69.9935 194.4885 0003336 269.3661  75.7485 15.74057581  3147"}}, "geometry": {"type": "Point", "coordinates": [170.87036161355556, -45.37007967664413]}}, {"type": "Feature", "properties": {"norad_id": 66847, "name": "STARLINK-36061", "group": "last-30-days", "lat": -43.70287238213365, "lon": 172.1490953106912, "alt_km": 358.2809784074725, "timestamp": "2025-12-14T22:38:39.518747+00:00", "meta": {"OBJECT_NAME": "STARLINK-36061", "OBJECT_ID": "2025-280AC", "EPOCH": "2025-12-14T06:00:02.999808", "MEAN_MOTION": 15.74077566, "ECCENTRICITY": 0.00033215, "INCLINATION": 69.9932, "RA_OF_ASC_NODE": 194.4864, "ARG_OF_PERICENTER": 270.0943, "MEAN_ANOMALY": 76.9218, "EPHEMERIS_TYPE": 0, "CLASSIFICATION_TYPE": "U", "NORAD_CAT_ID": 66847, "ELEMENT_SET_NO": 999, "REV_AT_EPOCH": 309, "BSTAR": -0.011712169, "MEAN_MOTION_DOT": -0.0147966, "MEAN_MOTION_DDOT": 0}, "tle": {"line1": "1 66847U 25280AC  25348.25003472 -.01479660  00000+0 -11712-1 0  9990", "line2": "2 66847  69.9932 194.4864 0003321 270.0943  76.9218 15.74077566  3094"}}, "geometry": {"type": "Point", "coordinates": [172.1490953106912, -43.70287238213365]}}, {"type": "Feature", "properties": {"norad_id": 66848, "name": "STARLINK-36091", "group": "last-30-days", "lat": 10.186598953276805, "lon": -82.353735149482, "alt_km": 313.57469383096213, "timestamp": "2025-12-14T22:38:39.518757+00:00", "meta": {"OBJECT_NAME": "STARLINK-36091", "OBJECT_ID": "2025-281A", "EPOCH": "2025-12-14T06:00:02.999808", "MEAN_MOTION": 15.87295795, "ECCENTRICITY": 0.00015126, "INCLINATION": 43.0006, "RA_OF_ASC_NODE": 113.0436, "ARG_OF_PERICENTER": 271.6891, "MEAN_ANOMALY": 247.789, "EPHEMERIS_TYPE": 0, "CLASSIFICATION_TYPE": "U", "NORAD_CAT_ID": 66848, "ELEMENT_SET_NO": 999, "REV_AT_EPOCH": 164, "BSTAR": -0.0047912457, "MEAN_MOTION_DOT": -0.01142852, "MEAN_MOTION_DDOT": 0}, "tle": {"line1": "1 66848U 25281A   25348.25003472 -.01142852  00000+0 -47912-2 0  9994", "line2": "2 66848  43.0006 113.0436 0001512 271.6891 247.7890 15.87295795  1644"}}, "geometry": {"type": "Point", "coordinates": [-82.353735149482, 10.186598953276805]}}, {"type": "Feature", "properties": {"norad_id": 66849, "name": "STARLINK-36102", "group": "last-30-days", "lat": 8.594788594351149, "lon": -80.57630604985091, "alt_km": 313.6774895968874, "timestamp": "2025-12-14T22:38:39.518767+00:00", "meta": {"OBJECT_NAME": "STARLINK-36102", "OBJECT_ID": "2025-281B", "EPOCH": "2025-12-14T06:00:02.999808", "MEAN_MOTION": 15.87303718, "ECCENTRICITY": 0.00013555, "INCLINATION": 43.0008, "RA_OF_ASC_NODE": 113.0375, "ARG_OF_PERICENTER": 269.984, "MEAN_ANOMALY": 251.853, "EPHEMERIS_TYPE": 0, "CLASSIFICATION_TYPE": "U", "NORAD_CAT_ID": 66849, "ELEMENT_SET_NO": 999, "REV_AT_EPOCH": 164, "BSTAR": -0.0048078976, "MEAN_MOTION_DOT": -0.01146633, "MEAN_MOTION_DDOT": 0}, "tle": {"line1": "1 66849U 25281B   25348.25003472 -.01146633  00000+0 -48079-2 0  9991", "line2": "2 66849  43.0008 113.0375 0001355 269.9840 251.8530 15.87303718  1640"}}, "geometry": {"type": "Point", "coordinates": [-80.57630604985091, 8.594788594351149]}}, {"type": "Feature", "properties": {"norad_id": 66850, "name": "STARLINK-36105", "group": "last-30-days", "lat": 6.5196942918677445, "lon": -78.29440737300057, "alt_km": 313.8836411973889, "timestamp": "2025-12-14T22:38:39.518777+00:00", "meta": {"OBJECT_NAME": "STARLINK-36105", "OBJECT_ID": "2025-281C", "EPOCH": "2025-12-14T06:00:02.999808", "MEAN_MOTION": 15.87294915, "ECCENTRICITY": 0.00014866, "INCLINATION": 43.0005, "RA_OF_ASC_NODE": 113.0296, "ARG_OF_PERICENTER": 265.8198, "MEAN_ANOMALY": 259.1292, "EPHEMERIS_TYPE": 0, "CLASSIFICATION_TYPE": "U", "NORAD_CAT_ID": 66850, "ELEMENT_SET_NO": 999, "REV_AT_EPOCH": 164, "BSTAR": -0.0048407307, "MEAN_MOTION_DOT": -0.01153123, "MEAN_MOTION_DDOT": 0}, "tle": {"line1": "1 66850U 25281C   25348.25003472 -.01153123  00000+0 -48407-2 0  9990", "line2": "2 66850  43.0005 113.0296 0001486 265.8198 259.1292 15.87294915  1641"}}, "geometry": {"type": "Point", "coordinates": [-78.29440737300057, 6.5196942918677445]}}, {"type": "Feature", "properties": {"norad_id": 66851, "name": "STARLINK-36094", "group": "last-30-days", "lat": 4.855234711073861, "lon": -76.48620576046983, "alt_km": 314.25132602445774, "timestamp": "2025-12-14T22:38:39.518787+00:00", "meta": {"OBJECT_NAME": "STARLINK-36094", "OBJECT_ID": "2025-281D", "EPOCH": "2025-12-14T06:00:02.999808", "MEAN_MOTION": 15.87307853, "ECCENTRICITY": 0.00014295, "INCLINATION": 43.0005, "RA_OF_ASC_NODE": 113.0233, "ARG_OF_PERICENTER": 272.7281, "MEAN_ANOMALY": 254.665, "EPHEMERIS_TYPE": 0, "CLASSIFICATION_TYPE": "U", "NORAD_CAT_ID": 66851, "ELEMENT_SET_NO": 999, "REV_AT_EPOCH": 164, "BSTAR": -0.0048886948, "MEAN_MOTION_DOT": -0.01185892, "MEAN_MOTION_DDOT": 0}, "tle": {"line1": "1 66851U 25281D   25348.25003472 -.01185892  00000+0 -48887-2 0  9991", "line2": "2 66851  43.0005 113.0233 0001429 272.7281 254.6650 15.87307853  1644"}}, "geometry": {"type": "Point", "coordinates": [-76.48620576046983, 4.855234711073861]}}, {"type": "Feature", "properties": {"norad_id": 66852, "name": "STARLINK-35992", "group": "last-30-days", "lat": 3.2393025941041502, "lon": -74.74388720064374, "alt_km": 314.37382507676284, "timestamp": "2025-12-14T22:38:39.518797+00:00", "meta": {"OBJECT_NAME": "STARLINK-35992", "OBJECT_ID": "2025-281E", "EPOCH": "2025-12-14T06:00:02.999808", "MEAN_MOTION": 15.87317939, "ECCENTRICITY": 0.00016003, "INCLINATION": 43.0006, "RA_OF_ASC_NODE": 113.0176, "ARG_OF_PERICENTER": 270.3082, "MEAN_ANOMALY": 259.4477, "EPHEMERIS_TYPE": 0, "CLASSIFICATION_TYPE": "U", "NORAD_CAT_ID": 66852, "ELEMENT_SET_NO": 999, "REV_AT_EPOCH": 164, "BSTAR": -0.0049062189, "MEAN_MOTION_DOT": -0.01190324, "MEAN_MOTION_DDOT": 0}, "tle": {"line1": "1 66852U 25281E   25348.25003472 -.01190324  00000+0 -49062-2 0  9994", "line2": "2 66852  43.0006 113.0176 0001600 270.3082 259.4477 15.87317939  1642"}}, "geometry": {"type": "Point", "coordinates": [-74.74388720064374, 3.2393025941041502]}}, {"type": "Feature", "properties": {"norad_id": 66853, "name": "STARLINK-35986", "group": "last-30-days", "lat": 1.0271435785513519, "lon": -72.37264757527983, "alt_km": 314.691152881368, "timestamp": "2025-12-14T22:38:39.518809+00:00", "meta": {"OBJECT_NAME": "STARLINK-35986", "OBJECT_ID": "2025-281F", "EPOCH": "2025-12-14T06:00:02.999808", "MEAN_MOTION": 15.87307633, "ECCENTRICITY": 0.00016133, "INCLINATION": 43.0006, "RA_OF_ASC_NODE": 113.0091, "ARG_OF_PERICENTER": 270.9089, "MEAN_ANOMALY": 262.1424, "EPHEMERIS_TYPE": 0, "CLASSIFICATION_TYPE": "U", "NORAD_CAT_ID": 66853, "ELEMENT_SET_NO": 999, "REV_AT_EPOCH": 164, "BSTAR": -0.0049584553, "MEAN_MOTION_DOT": -0.01201082, "MEAN_MOTION_DDOT": 0}, "tle": {"line1": "1 66853U 25281F   25348.25003472 -.01201082  00000+0 -49585-2 0  9999", "line2": "2 66853  43.0006 113.0091 0001613 270.9089 262.1424 15.87307633  1649"}}, "geometry": {"type": "Point", "coordinates": [-72.37264757527983, 1.0271435785513519]}}, {"type": "Feature", "properties": {"norad_id": 66854, "name": "STARLINK-36087", "group": "last-30-days", "lat": -1.0945998274976898, "lon": -70.10342899282892, "alt_km": 314.8420808175497, "timestamp": "2025-12-14T22:38:39.518820+00:00", "meta": {"OBJECT_NAME": "STARLINK-36087", "OBJECT_ID": "2025-281G", "EPOCH": "2025-12-14T06:00:02.999808", "MEAN_MOTION": 15.87299851, "ECCENTRICITY": 0.00016641, "INCLINATION": 43.0006, "RA_OF_ASC_NODE": 113.0009, "ARG_OF_PERICENTER": 267.3094, "MEAN_ANOMALY": 268.888, "EPHEMERIS_TYPE": 0, "CLASSIFICATION_TYPE": "U", "NORAD_CAT_ID": 66854, "ELEMENT_SET_NO": 999, "REV_AT_EPOCH": 164, "BSTAR": -0.0049911481, "MEAN_MOTION_DOT": -0.01207752, "MEAN_MOTION_DDOT": 0}, "tle": {"line1": "1 66854U 25281G   25348.25003472 -.01207752  00000+0 -49911-2 0  9993", "line2": "2 66854  43.0006 113.0009 0001664 267.3094 268.8880 15.87299851  1642"}}, "geometry": {"type": "Point", "coordinates": [-70.10342899282892, -1.0945998274976898]}}]}